[Satellite]
VERSION=1.1
NAME=ECHOSTAR 14
NICKNAME=ECHOSTAR 14
TLE1=1 36499U 10010A   15054.54623552 -.00000025  00000-0  00000+0 0  9997
TLE2=2 36499   0.0205 220.8856 0002816 118.6290 251.3170  1.00272180 18105
